{
    "links": {
        "self": "http://www.neowsapp.com/rest/v1/neo/3773987?api_key=iIulBulltgU6a56xZRHN4H3l9WmuAYTsLGpBGhQ2"
    },
    "id": "3773987",
    "neo_reference_id": "3773987",
    "name": "(2017 HD)",
    "designation": "2017 HD",
    "nasa_jpl_url": "http://ssd.jpl.nasa.gov/sbdb.cgi?sstr=3773987",
    "absolute_magnitude_h": 26.7,
    "estimated_diameter": {
        "kilometers": {
            "estimated_diameter_min": 0.0121494041,
            "estimated_diameter_max": 0.0271668934
        },
        "meters": {
            "estimated_diameter_min": 12.14940408,
            "estimated_diameter_max": 27.1668934089
        },
        "miles": {
            "estimated_diameter_min": 0.0075492874,
            "estimated_diameter_max": 0.0168807197
        },
        "feet": {
            "estimated_diameter_min": 39.8602508817,
            "estimated_diameter_max": 89.1302305717
        }
    },
    "is_potentially_hazardous_asteroid": false,
    "close_approach_data": [
        {
            "close_approach_date": "2015-07-14",
            "close_approach_date_full": "2015-Jul-14 11:38",
            "epoch_date_close_approach": 1436873880000,
            "relative_velocity": {
                "kilometers_per_second": "5.6013415173",
                "kilometers_per_hour": "20164.8294621046",
                "miles_per_hour": "12529.6408399394"
            },
            "miss_distance": {
                "astronomical": "0.114831645",
                "lunar": "44.669509905",
                "kilometers": "17178569.50059615",
                "miles": "10674268.11528087"
            },
            "orbiting_body": "Venus"
        },
        {
            "close_approach_date": "2015-08-31",
            "close_approach_date_full": "2015-Aug-31 22:12",
            "epoch_date_close_approach": 1441059120000,
            "relative_velocity": {
                "kilometers_per_second": "11.0731928055",
                "kilometers_per_hour": "39863.4940998158",
                "miles_per_hour": "24769.6249866328"
            },
            "miss_distance": {
                "astronomical": "0.0439902914",
                "lunar": "17.1122233546",
                "kilometers": "6580853.894119318",
                "miles": "4089152.9932618684"
            },
            "orbiting_body": "Earth"
        },
        {
            "close_approach_date": "2017-04-22",
            "close_approach_date_full": "2017-Apr-22 17:04",
            "epoch_date_close_approach": 1492880640000,
            "relative_velocity": {
                "kilometers_per_second": "12.2352633398",
                "kilometers_per_hour": "44046.9480232508",
                "miles_per_hour": "27369.0605647805"
            },
            "miss_distance": {
                "astronomical": "0.0096595722",
                "lunar": "3.7575735858",
                "kilometers": "1445051.426231214",
                "miles": "897913.3194661932"
            },
            "orbiting_body": "Earth"
        },
        {
            "close_approach_date": "2017-04-22",
            "close_approach_date_full": "2017-Apr-22 22:10",
            "epoch_date_close_approach": 1492899000000,
            "relative_velocity": {
                "kilometers_per_second": "11.7483129553",
                "kilometers_per_hour": "42293.9266390192",
                "miles_per_hour": "26279.8012496728"
            },
            "miss_distance": {
                "astronomical": "0.008791652",
                "lunar": "3.419952628",
                "kilometers": "1315212.41298124",
                "miles": "817235.097731512"
            },
            "orbiting_body": "Moon"
        },
        {
            "close_approach_date": "2111-09-18",
            "close_approach_date_full": "2111-Sep-18 20:15",
            "epoch_date_close_approach": 4472050500000,
            "relative_velocity": {
                "kilometers_per_second": "17.1830696165",
                "kilometers_per_hour": "61859.0506193654",
                "miles_per_hour": "38436.8084251274"
            },
            "miss_distance": {
                "astronomical": "0.1786655582",
                "lunar": "69.5009021398",
                "kilometers": "26727986.949081034",
                "miles": "16608000.9669209092"
            },
            "orbiting_body": "Earth"
        }
    ],
    "orbital_data": {
        "orbit_id": "5",
        "orbit_determination_date": "2017-04-24 06:23:12",
        "first_observation_date": "2017-04-16",
        "last_observation_date": "2017-04-22",
        "data_arc_in_days": 6,
        "observations_used": 33,
        "orbit_uncertainty": "7",
        "minimum_orbit_intersection": ".00615964",
        "jupiter_tisserand_invariant": "4.374",
        "epoch_osculation": "2459000.5",
        "eccentricity": ".4559518800204022",
        "semi_major_axis": "1.525596007958427",
        "inclination": "2.508839603459496",
        "ascending_node_longitude": "205.1129290922509",
        "orbital_period": "688.2682601444067",
        "perihelion_distance": ".8299976399781618",
        "perihelion_argument": "71.90387624342331",
        "aphelion_distance": "2.221194375938692",
        "perihelion_time": "2459289.443886253692",
        "mean_anomaly": "208.8673601925149",
        "mean_motion": ".5230518692296923",
        "equinox": "J2000",
        "orbit_class": {
            "orbit_class_type": "APO",
            "orbit_class_description": "Near-Earth asteroid orbits which cross the Earth’s orbit similar to that of 1862 Apollo",
            "orbit_class_range": "a (semi-major axis) > 1.0 AU; q (perihelion) < 1.017 AU"
        }
    },
    "is_sentry_object": false
}